{
  "norad_id": 65325,
  "name": "STARLINK-34911",
  "history": [
    {
      "epoch": "2026-03-28T08:53:48.031584Z",
      "apogee_km": 476.09473073235404,
      "perigee_km": 474.35534744683355,
      "latitude_deg": -3.7382154274081917e-06,
      "longitude_deg": 160.96665641751474,
      "height_km": 476.0960172623182,
      "semi_major_axis_km": 6853.362039089594,
      "eccentricity": 0.0001269,
      "inclination_deg": 53.1591,
      "raan_deg": 120.2089,
      "arg_perigee_deg": 88.2208,
      "mean_anomaly_deg": 271.8938,
      "mean_motion_rev_day": 15.30196661
    },
    {
      "epoch": "2026-03-29T05:16:29.455968Z",
      "apogee_km": 475.9420472454085,
      "perigee_km": 474.4946185990957,
      "latitude_deg": 1.2967874541491724e-05,
      "longitude_deg": -149.48783471406185,
      "height_km": 475.8178665347529,
      "semi_major_axis_km": 6853.355332922252,
      "eccentricity": 0.0001056,
      "inclination_deg": 53.159,
      "raan_deg": 116.2639,
      "arg_perigee_deg": 65.6101,
      "mean_anomaly_deg": 294.501,
      "mean_motion_rev_day": 15.30198907
    },
    {
      "epoch": "2026-03-30T01:39:11.208672Z",
      "apogee_km": 475.8761586770579,
      "perigee_km": 474.4397080590252,
      "latitude_deg": -1.636995827383038e-06,
      "longitude_deg": -99.94192031026193,
      "height_km": 475.93380880508056,
      "semi_major_axis_km": 6853.294933368042,
      "eccentricity": 0.0001048,
      "inclination_deg": 53.1592,
      "raan_deg": 112.3207,
      "arg_perigee_deg": 80.1841,
      "mean_anomaly_deg": 279.9278,
      "mean_motion_rev_day": 15.30219136
    },
    {
      "epoch": "2026-03-30T01:39:11.209536Z",
      "apogee_km": 475.8764328088573,
      "perigee_km": 474.4394339272276,
      "latitude_deg": -5.273013885842441e-06,
      "longitude_deg": -99.9419266291803,
      "height_km": 475.9337620710918,
      "semi_major_axis_km": 6853.294933368042,
      "eccentricity": 0.00010484,
      "inclination_deg": 53.1592,
      "raan_deg": 112.3207,
      "arg_perigee_deg": 80.1841,
      "mean_anomaly_deg": 279.9278,
      "mean_motion_rev_day": 15.30219136
    },
    {
      "epoch": "2026-03-30T11:03:30.425184Z",
      "apogee_km": 476.0042471427405,
      "perigee_km": 474.41975285394074,
      "latitude_deg": -6.870154988655942e-06,
      "longitude_deg": 116.77154394050115,
      "height_km": 476.14103300881254,
      "semi_major_axis_km": 6853.34899999834,
      "eccentricity": 0.0001156,
      "inclination_deg": 53.1592,
      "raan_deg": 110.5005,
      "arg_perigee_deg": 92.2343,
      "mean_anomaly_deg": 267.879,
      "mean_motion_rev_day": 15.30201028
    }
  ]
}